#dP2020 10 14  0  0  0.00000000      96 __u+U ITR00 FIT  IAC
## 2127 259200.00000000   900.00000000 59136 0.0000000000000
+  115   C06C07C08C09C10C11C12C13C14C16C19C20C21C22C23C24C25
+        C26C27C28C29C30C32C33C34C35C36C37C38C39C40C43C44C45
+        C46E01E02E03E04E05E07E08E09E11E12E13E14E15E18E19E21
+        E24E25E26E27E30E31E33E36G01G02G03G04G05G06G07G08G09
+        G10G11G12G13G15G16G17G18G19G20G21G22G24G25G26G27G28
+        G29G30G31G32J01J02J03R01R02R03R04R05R07R08R09R11R12
+        R13R14R15R16R17R18R19R20R21R22R23R24R26  0  0  0  0
++         8  8  7  7  7  9  7  8  7  7  7  7  7  7  6  7  7
++         7  6  6  7  7  7  6  7  9  7  7 13 10 11  8 12  8
++         8  5  5  6  5  6  6  7  6  7  6  7  5  6  5  5  8
++         6  7  5  6  5  5  6  6  8  5  6  5  4  5  5  5  6
++         6  6  5  6  6  6  5  6  5  6  6  8  6  6  6  5  5
++         6 10  6  6  8  8  7  7  7  7  5  7  5  7  7  6  7
++         6  6  6  7  5  4  7  7  5  6  6  6  7  0  0  0  0
%c M  cc GPS ccc cccc cccc cccc cccc ccccc ccccc ccccc ccccc
%c cc cc ccc ccc cccc cccc cccc cccc ccccc ccccc ccccc ccccc
%f  0.0000000  0.000000000  0.00000000000  0.000000000000000
%f  0.0000000  0.000000000  0.00000000000  0.000000000000000
%i    0    0    0    0      0      0      0      0         0
%i    0    0    0    0      0      0      0      0         0
/* INFORMATION & ANALYSIS CENTER (IAC)      ULTRA-RAPID DATA
/* S/V CLOCKS ARE ALIGNED TO GNSS TIME                      
/* G:C1WC2W R:C1PC2P E:C1XC5X C:C2IC6I J:C1CC2S             
/* PCV:IGS14_2118 OL/AL:FES2004  NONE     YN ORB:CoN CLK:CoN
*  2020 10 14  6  0  0.00000000
PC06  -8260.906791  32029.196970  26810.841707     47.189279
PC07 -20480.373337  22239.270253 -29320.347257    -97.814988
PC08 -22536.953809  34995.098990   5404.225593   -605.216190
PC09   2584.954884  39770.833459  14618.101786    871.778460
PC10  -3859.916322  26018.378757 -32747.645396   -164.515236
PC11  15780.669385   4780.046148  22564.623036   -683.552406
PC12  11749.568106  22478.248228  11630.530385    555.341868
PC13 -11796.922105  36071.035208  18125.757586    694.702578
PC14  26837.422816   5526.610395  -5114.765265    -31.784173
PC16  -4994.219973  33870.076342  24814.349192   -595.815143
PC19 -24339.104203   1576.569453  13589.779633    581.137182
PC20 -25497.667609 -10987.020151  -2954.902106   -860.273638
PC21  11399.556737  17548.717593  18459.435023   -696.544876
PC22  -9067.872349  13521.232920  22661.392612   -773.744445
PC23  16181.597600 -21235.462138   8139.319845   -892.239456
PC24  17101.667268   5500.707040 -21357.545718   -721.115700
PC25  23420.342690 -12229.450203  -9013.750635   -790.524171
PC26   1815.626258  18320.521743 -20962.476099    866.212103
PC27  -6456.579336 -27012.364538  -2673.381460    415.365707
PC28   6077.885051 -23184.312269  14309.037081   -158.486315
PC29 -14782.180838   6350.620893 -22805.735532    297.114304
PC30 -15627.582589 -14820.547462 -17738.199310    389.414454
PC32 -11531.606680 -17474.195723 -18448.974459   -904.905161
PC33  24361.088825  -1654.351287 -13499.965922   -811.470599
PC34  15741.909992  14317.202146  18057.325904   -832.554307
PC35  -5464.845592  23251.085192 -14454.233315   -608.594730
PC36 -23709.473906  11436.306501   9297.262492   -878.213275
PC37   -633.308816 -18751.224251  20688.703487   -898.231514
PC38 -19373.546069  36330.724771   8726.481839    106.063103
PC39   -595.183565  35399.574509  22979.450260     23.807322
PC40  -8177.514846  21027.434191 -35600.257824 999999.999999
PC43  15042.454038  -5848.771117  22761.356702   -415.751114
PC44   7218.841117  26859.276712   2446.684287   -169.846960
PC45 -16130.284009  21236.616651  -8171.707727 999999.999999
PC46 -17473.687628  -4812.755097  21225.864062 999999.999999
PE01 -26714.822000  11156.238928  -6154.235869   -960.998220
PE02  26665.715327 -11231.745946   6280.524074    168.777286
PE03  17050.057004  -6296.471078 -23367.348267   -353.531401
PE04   -248.782720  20895.845588  20961.516771   -626.721727
PE05  24096.131058  12219.779465 -12092.372859   -338.028167
PE07 -17011.669605 -23439.942825  -6144.492784   -448.483996
PE08   -230.060150 -20949.885829 -20920.446192   6106.820965
PE09  17246.989312  23270.787698   6051.853050   5899.401277
PE11   5550.234481  23374.000997  17287.615848   6217.284138
PE12  -8063.881965  28473.335885   -769.531696   5557.590901
PE13  -5393.119061 -23541.516961 -17113.974747    404.498940
PE14 -12071.300155 -25336.352906   1195.041898  -1189.639537
PE15   7863.091691 -28534.662778    630.192833    848.523657
PE18    675.663193  25868.179307 -13308.728891  -1299.495681
PE19 -18410.693222   4087.097601  22813.315121    102.585094
PE21 -26992.178536  -1326.464296  12085.275620   -626.537922
PE24  11041.711788  13719.985392 -23795.519764   -528.316599
PE25  26929.553510   1416.093462 -12191.463183   -518.222628
PE26 -15781.659380  -4206.870013 -24682.991683   2615.244198
PE27 -11560.485443 -13424.797317  23724.128345    114.048599
PE30  11273.260718 -17511.634359  21039.185383   3507.140621
PE31 -10573.160006  17555.471104 -21342.636115   -474.844346
PE33 -16485.272811  16751.408097 -17986.623414   -462.764567
PE36  15475.842177   4710.441739  24792.297752    494.734743
PG01  14466.430053 -21850.914489   2801.530154     32.889530
PG02 -17231.019096   6375.694000 -18529.265861   -529.338760
PG03  14500.673529 -12834.694104 -18216.313331   -325.742650
PG04   5486.450950 -17593.608022 -19105.928644   -145.063435
PG05 -26544.210688   2174.623064   1132.360717    -23.357971
PG06 -11089.832822 -10132.292532 -21846.020056   -333.029202
PG07   2878.404123 -23161.941087  12528.923659   -393.022595
PG08  12653.572772  -8126.719726  21903.277848    -51.380584
PG09  -5432.482992 -23548.163006 -11060.168468   -299.856920
PG10  16099.704699  11879.044423  17683.844381   -479.220887
PG11  12063.895357 -18163.726422  14932.276453   -137.466990
PG12 -17088.500455  10846.689396 -17351.139918     54.331427
PG13 -16348.640113  -1752.562902  20753.335514     54.562218
PG15 -11885.155429  10345.024179  21028.160314   -197.084152
PG16  26644.869691     72.032422   2718.167158   -222.161437
PG17 -15112.591868 -21073.354172  -5408.532874    339.561089
PG18  -2669.039634  22809.529841  13289.164277    306.645452
PG19 -16948.570065 -16381.981379 -12596.302395    -92.041513
PG20   3863.776868  15299.414439  21296.467208    526.405384
PG21  18109.709686  -9447.552343  17563.044139     57.547724
PG22  20980.029763 -11010.301684 -11652.386972   -743.512679
PG24 -14965.247648  20662.358644   6412.660082    -19.756218
PG25  -4104.943292  15123.477774 -21653.103514      5.090359
PG26  24177.188280   5718.551055  -9754.440185    294.960577
PG27  17780.124121   4423.943319  19207.147770   -418.005560
PG28 -16076.141254 -12917.718526  17227.317535    667.902014
PG29   1693.864151  22878.845722 -13382.612444   -215.136536
PG30  -5231.950129 -18072.022728  18714.405433   -319.582153
PG31  13067.994607   7993.856848 -21745.672130    -74.830239
PG32  16791.936310  19882.436218  -5617.375944    357.379276
PJ01 -27741.722620  21279.105528  28541.916472   -340.621741
PJ02 -35603.716753  20005.390431  -5843.003949     -5.114382
PJ03 -19981.681798  25982.604476 -21929.699197     -1.960869
PR01 -21593.151057  -4918.346313  12662.883464     69.024618
PR02  -6029.668050   9113.880703  23080.633420    449.858070
PR03  11092.102299  15666.906806  16861.557468     23.743616
PR04  21778.800165  13233.445339   1214.050930     57.921501
PR05  20226.171591   3521.633921 -15151.470721     59.246811
PR07 -11576.366919 -15699.953840 -16381.874088    -40.777158
PR08 -21784.674574 -13200.575741  -1105.899765    -55.160083
PR09  16752.152051 -15971.957193  10663.444932      2.174627
PR11 -15771.442444  -2006.426188  19985.415603    -41.052427
PR12 -22663.356284   9325.264150   7074.812354    171.674802
PR13 -16984.829964  15926.226527 -10429.982370    -45.194135
PR14  -1193.712096  12922.900164 -21943.438821     56.571338
PR15  15001.104454   2575.518595 -20441.684274    106.996452
PR16  22579.754784 -10248.874299  -6264.613891     -7.228116
PR17   1849.290276  25058.798438   4252.010846    365.977786
PR18   8280.646989  15295.629321  18691.320245     52.663314
PR19  10388.132130  -1798.208323  23228.349184   -115.326666
PR20   6654.534024 -20619.989118  13443.138713   -424.104927
PR21  -2233.285543 -24873.107530  -5293.360456   -158.902734
PR22  -8509.318733 -14126.737511 -19441.105740    -77.485776
PR23  -9680.497599   9979.083304 -21391.032442    338.246506
PR24  -6428.239062  21158.413520 -12676.689334     16.793629
PR26   8049.033506 -16646.124202  17601.993114   -363.078513
EOF
